CCSDS_OMM_VERS = 2.0
CREATION_DATE  = 
ORIGINATOR     = 

OBJECT_NAME    = OKEAN-3
OBJECT_ID      = 1991-039A
CENTER_NAME    = EARTH
REF_FRAME      = TEME
TIME_SYSTEM    = UTC
MEAN_ELEMENT_THEORY = SGP/SGP4

EPOCH          = 2025-11-13T11:23:18.782880
MEAN_MOTION    = 15.03837085
ECCENTRICITY   = .00145083
INCLINATION    = 82.5160
RA_OF_ASC_NODE = 89.3653
ARG_OF_PERICENTER = 11.0860
MEAN_ANOMALY   = 349.0682

EPHEMERIS_TYPE = 0
CLASSIFICATION_TYPE = U
NORAD_CAT_ID   = 21397
ELEMENT_SET_NO = 999
REV_AT_EPOCH   = 84756
BSTAR          = .62472718E-3
MEAN_MOTION_DOT = .864E-4
MEAN_MOTION_DDOT = 0

CCSDS_OMM_VERS = 2.0
CREATION_DATE  = 
ORIGINATOR     = 

OBJECT_NAME    = COSMOS 2151
OBJECT_ID      = 1991-042A
CENTER_NAME    = EARTH
REF_FRAME      = TEME
TIME_SYSTEM    = UTC
MEAN_ELEMENT_THEORY = SGP/SGP4

EPOCH          = 2025-11-13T15:56:33.507744
MEAN_MOTION    = 14.99539621
ECCENTRICITY   = .00142837
INCLINATION    = 82.4982
RA_OF_ASC_NODE = 195.5160
ARG_OF_PERICENTER = 90.1632
MEAN_ANOMALY   = 270.1229

EPHEMERIS_TYPE = 0
CLASSIFICATION_TYPE = U
NORAD_CAT_ID   = 21422
ELEMENT_SET_NO = 999
REV_AT_EPOCH   = 84580
BSTAR          = .42992807E-3
MEAN_MOTION_DOT = .5318E-4
MEAN_MOTION_DDOT = 0

CCSDS_OMM_VERS = 2.0
CREATION_DATE  = 
ORIGINATOR     = 

OBJECT_NAME    = SL-14 R/B
OBJECT_ID      = 1991-042B
CENTER_NAME    = EARTH
REF_FRAME      = TEME
TIME_SYSTEM    = UTC
MEAN_ELEMENT_THEORY = SGP/SGP4

EPOCH          = 2025-11-13T11:21:59.484960
MEAN_MOTION    = 14.81700318
ECCENTRICITY   = .00154933
INCLINATION    = 82.4921
RA_OF_ASC_NODE = 329.1715
ARG_OF_PERICENTER = 262.4437
MEAN_ANOMALY   = 97.5017

EPHEMERIS_TYPE = 0
CLASSIFICATION_TYPE = U
NORAD_CAT_ID   = 21423
ELEMENT_SET_NO = 999
REV_AT_EPOCH   = 83586
BSTAR          = .1204509E-3
MEAN_MOTION_DOT = .973E-5
MEAN_MOTION_DDOT = 0

CCSDS_OMM_VERS = 2.0
CREATION_DATE  = 
ORIGINATOR     = 

OBJECT_NAME    = ERS-1
OBJECT_ID      = 1991-050A
CENTER_NAME    = EARTH
REF_FRAME      = TEME
TIME_SYSTEM    = UTC
MEAN_ELEMENT_THEORY = SGP/SGP4

EPOCH          = 2025-11-13T11:17:52.138176
MEAN_MOTION    = 14.39332259
ECCENTRICITY   = .00319027
INCLINATION    = 98.7924
RA_OF_ASC_NODE = 327.7913
ARG_OF_PERICENTER = 185.1578
MEAN_ANOMALY   = 174.9285

EPHEMERIS_TYPE = 0
CLASSIFICATION_TYPE = U
NORAD_CAT_ID   = 21574
ELEMENT_SET_NO = 999
REV_AT_EPOCH   = 79901
BSTAR          = .279189E-3
MEAN_MOTION_DOT = .826E-5
MEAN_MOTION_DDOT = 0

CCSDS_OMM_VERS = 2.0
CREATION_DATE  = 
ORIGINATOR     = 

OBJECT_NAME    = ARIANE 40 R/B
OBJECT_ID      = 1991-050F
CENTER_NAME    = EARTH
REF_FRAME      = TEME
TIME_SYSTEM    = UTC
MEAN_ELEMENT_THEORY = SGP/SGP4

EPOCH          = 2025-11-13T04:10:23.687328
MEAN_MOTION    = 14.42776722
ECCENTRICITY   = .00042337
INCLINATION    = 98.2210
RA_OF_ASC_NODE = 8.6657
ARG_OF_PERICENTER = 75.2357
MEAN_ANOMALY   = 284.9303

EPHEMERIS_TYPE = 0
CLASSIFICATION_TYPE = U
NORAD_CAT_ID   = 21610
ELEMENT_SET_NO = 999
REV_AT_EPOCH   = 80219
BSTAR          = .29544364E-3
MEAN_MOTION_DOT = .943E-5
MEAN_MOTION_DDOT = 0

CCSDS_OMM_VERS = 2.0
CREATION_DATE  = 
ORIGINATOR     = 

OBJECT_NAME    = INTERCOSMOS 25
OBJECT_ID      = 1991-086A
CENTER_NAME    = EARTH
REF_FRAME      = TEME
TIME_SYSTEM    = UTC
MEAN_ELEMENT_THEORY = SGP/SGP4

EPOCH          = 2025-11-13T09:47:52.584864
MEAN_MOTION    = 12.11598499
ECCENTRICITY   = .14883099
INCLINATION    = 82.6078
RA_OF_ASC_NODE = 20.3054
ARG_OF_PERICENTER = 7.6261
MEAN_ANOMALY   = 354.4931

EPHEMERIS_TYPE = 0
CLASSIFICATION_TYPE = U
NORAD_CAT_ID   = 21819
ELEMENT_SET_NO = 999
REV_AT_EPOCH   = 48260
BSTAR          = .60663759E-3
MEAN_MOTION_DOT = .3093E-4
MEAN_MOTION_DDOT = 0

CCSDS_OMM_VERS = 2.0
CREATION_DATE  = 
ORIGINATOR     = 

OBJECT_NAME    = SL-8 R/B
OBJECT_ID      = 1992-008B
CENTER_NAME    = EARTH
REF_FRAME      = TEME
TIME_SYSTEM    = UTC
MEAN_ELEMENT_THEORY = SGP/SGP4

EPOCH          = 2025-11-13T14:45:07.482816
MEAN_MOTION    = 13.75950220
ECCENTRICITY   = .00361319
INCLINATION    = 82.9283
RA_OF_ASC_NODE = 354.1108
ARG_OF_PERICENTER = 98.7718
MEAN_ANOMALY   = 73.5810

EPHEMERIS_TYPE = 0
CLASSIFICATION_TYPE = U
NORAD_CAT_ID   = 21876
ELEMENT_SET_NO = 999
REV_AT_EPOCH   = 69345
BSTAR          = .1850803E-3
MEAN_MOTION_DOT = .196E-5
MEAN_MOTION_DDOT = 0

CCSDS_OMM_VERS = 2.0
CREATION_DATE  = 
ORIGINATOR     = 

OBJECT_NAME    = SL-8 R/B
OBJECT_ID      = 1992-020B
CENTER_NAME    = EARTH
REF_FRAME      = TEME
TIME_SYSTEM    = UTC
MEAN_ELEMENT_THEORY = SGP/SGP4

EPOCH          = 2025-11-13T13:10:51.882240
MEAN_MOTION    = 13.75521754
ECCENTRICITY   = .00276054
INCLINATION    = 82.9312
RA_OF_ASC_NODE = 239.9914
ARG_OF_PERICENTER = 262.1505
MEAN_ANOMALY   = 271.1608

EPHEMERIS_TYPE = 0
CLASSIFICATION_TYPE = U
NORAD_CAT_ID   = 21938
ELEMENT_SET_NO = 999
REV_AT_EPOCH   = 68516
BSTAR          = .10937764E-3
MEAN_MOTION_DOT = .12E-5
MEAN_MOTION_DDOT = 0

CCSDS_OMM_VERS = 2.0
CREATION_DATE  = 
ORIGINATOR     = 

OBJECT_NAME    = USA 81
OBJECT_ID      = 1992-023A
CENTER_NAME    = EARTH
REF_FRAME      = TEME
TIME_SYSTEM    = UTC
MEAN_ELEMENT_THEORY = SGP/SGP4

EPOCH          = 2025-11-13T04:53:26.221344
MEAN_MOTION    = 14.32311753
ECCENTRICITY   = .00026103
INCLINATION    = 85.0109
RA_OF_ASC_NODE = 198.6064
ARG_OF_PERICENTER = 75.5011
MEAN_ANOMALY   = 284.6471

EPHEMERIS_TYPE = 0
CLASSIFICATION_TYPE = U
NORAD_CAT_ID   = 21949
ELEMENT_SET_NO = 999
REV_AT_EPOCH   = 7811
BSTAR          = .15480208E-3
MEAN_MOTION_DOT = .437E-5
MEAN_MOTION_DDOT = 0

CCSDS_OMM_VERS = 2.0
CREATION_DATE  = 
ORIGINATOR     = 

OBJECT_NAME    = COSMOS 2219
OBJECT_ID      = 1992-076A
CENTER_NAME    = EARTH
REF_FRAME      = TEME
TIME_SYSTEM    = UTC
MEAN_ELEMENT_THEORY = SGP/SGP4

EPOCH          = 2025-11-13T07:07:49.068480
MEAN_MOTION    = 14.14066566
ECCENTRICITY   = .00177009
INCLINATION    = 71.0612
RA_OF_ASC_NODE = 261.3759
ARG_OF_PERICENTER = 10.0849
MEAN_ANOMALY   = 350.0625

EPHEMERIS_TYPE = 0
CLASSIFICATION_TYPE = U
NORAD_CAT_ID   = 22219
ELEMENT_SET_NO = 999
REV_AT_EPOCH   = 70192
BSTAR          = .1159028E-3
MEAN_MOTION_DOT = .174E-5
MEAN_MOTION_DDOT = 0

CCSDS_OMM_VERS = 2.0
CREATION_DATE  = 
ORIGINATOR     = 

OBJECT_NAME    = SL-16 R/B
OBJECT_ID      = 1992-076B
CENTER_NAME    = EARTH
REF_FRAME      = TEME
TIME_SYSTEM    = UTC
MEAN_ELEMENT_THEORY = SGP/SGP4

EPOCH          = 2025-11-13T14:52:34.726368
MEAN_MOTION    = 14.16836002
ECCENTRICITY   = .00152907
INCLINATION    = 71.0003
RA_OF_ASC_NODE = 72.8690
ARG_OF_PERICENTER = 272.0407
MEAN_ANOMALY   = 99.0255

EPHEMERIS_TYPE = 0
CLASSIFICATION_TYPE = U
NORAD_CAT_ID   = 22220
ELEMENT_SET_NO = 999
REV_AT_EPOCH   = 70539
BSTAR          = .22582606E-4
MEAN_MOTION_DOT = -.3E-7
MEAN_MOTION_DDOT = 0

CCSDS_OMM_VERS = 2.0
CREATION_DATE  = 
ORIGINATOR     = 

OBJECT_NAME    = COSMOS 2221
OBJECT_ID      = 1992-080A
CENTER_NAME    = EARTH
REF_FRAME      = TEME
TIME_SYSTEM    = UTC
MEAN_ELEMENT_THEORY = SGP/SGP4

EPOCH          = 2025-11-13T10:45:32.192928
MEAN_MOTION    = 14.95599750
ECCENTRICITY   = .00137329
INCLINATION    = 82.5070
RA_OF_ASC_NODE = 30.3539
ARG_OF_PERICENTER = 218.3487
MEAN_ANOMALY   = 141.6759

EPHEMERIS_TYPE = 0
CLASSIFICATION_TYPE = U
NORAD_CAT_ID   = 22236
ELEMENT_SET_NO = 999
REV_AT_EPOCH   = 76341
BSTAR          = .48075553E-3
MEAN_MOTION_DOT = .537E-4
MEAN_MOTION_DDOT = 0

